[Satellite]
VERSION=1.1
NAME=YAOGAN 27
NICKNAME=YAOGAN 27
TLE1=1 40878U 15040A   17186.24453316 -.00000044  00000-0  00000-0 0  9997
TLE2=2 40878 100.3945 246.6734 0008894 165.6553 194.4813 13.15955049 89192
